FORMOSAT 7-3            
1 44343U 19036E   26166.46548241  .00003458  00000+0  18774-3 0  9991
2 44343  23.9974 190.3915 0000356 223.9027 136.1448 15.09790634382982
FORMOSAT 7-1            
1 44349U 19036L   26165.97992302  .00002540  00000+0  19221-3 0  9992
2 44349  23.9975  47.2732 0000940 136.6905 223.3670 14.96497002384324
FORMOSAT 7-4            
1 44350U 19036M   26166.13574132  .00002390  00000+0  17938-3 0  9996
2 44350  23.9977 108.3283 0001267 153.8541 206.2024 14.96490785383769
FORMOSAT 7-2            
1 44351U 19036N   26165.69133799  .00002249  00000+0  16731-3 0  9990
2 44351  23.9962 165.6418 0000893 136.7195 223.3376 14.96489879383211
FORMOSAT 7-6            
1 44353U 19036Q   26166.15786701  .00002427  00000+0  18247-3 0  9993
2 44353  23.9995 343.3120 0001426  74.7667 285.2991 14.96503562381519
FORMOSAT 7-5            
1 44358U 19036V   26166.00177539  .00002506  00000+0  18927-3 0  9998
2 44358  23.9977 283.1169 0000640 109.4074 250.6496 14.96510526382024
METEOR-M2 2             
1 44387U 19038A   26166.55876420  .00000084  00000+0  56154-4 0  9991
2 44387  98.9135 153.8199 0002121  50.3711 309.7655 14.24365927361066
GLOBAL-4                
1 44499U 19054E   26165.71503989  .00048130  00000+0  49412-3 0  9999
2 44499  45.0056 250.6641 0006206 321.3031  38.7421 15.64203962379971
ZY-1 02D                
1 44528U 19059A   26166.53582934  .00000225  00000+0  92779-4 0  9993
2 44528  98.3195 228.0790 0002431 108.6442 251.5008 14.35459696354109
TAURUS-1 (JINNIUZUO 1)  
1 44530U 19059C   26166.47552203  .00005377  00000+0  86321-3 0  9993
2 44530  98.6406 331.1966 0007545 322.3014  37.7662 14.72081445358391
ZHUHAI-1 03B            
1 44536U 19060C   26166.50919064  .00024465  00000+0  37888-3 0  9990
2 44536  97.5523 324.1836 0007592 324.7765  35.2985 15.54008783376064
ZHUHAI-1 03D            
1 44538U 19060E   26166.48034146  .00023044  00000+0  41685-3 0  9990
2 44538  97.5390 316.2895 0006693 307.6683  52.3960 15.49666050375811
ZHUHAI-1 03E            
1 44539U 19060F   26166.49034051  .00014034  00000+0  34187-3 0  9995
2 44539  97.5608 316.3783 0006070  39.2699 320.8986 15.41018508375503
GAOFEN-7                
1 44703U 19072A   26166.48889331  .00003329  00000+0  14998-3 0  9992
2 44703  97.2431 228.0203 0017503  46.4656 313.8031 15.21590471367381
JILIN-1 GAOFEN 2A       
1 44777U 19075A   26166.50993743  .00012028  00000+0  31058-3 0  9994
2 44777  97.4973 250.2603 0007525  92.3910 267.8197 15.39269392364621
NINGXIA-1 1             
1 44779U 19076A   26166.47139016 -.00000083  00000+0  30648-4 0  9992
2 44779  45.0037 187.5198 0010515 155.1111 205.0232 14.02038034337617
NINGXIA-1 5             
1 44783U 19076E   26166.48474109  .00000091  00000+0  14339-3 0  9999
2 44783  45.0036 186.8022 0009996 144.4852 215.6649 14.02086765337537
KL-ALPHA A              
1 44785U 19077A   26166.49688735  .00000112  00000+0  14153-3 0  9993
2 44785  88.9257 222.7494 0013191 110.0813 250.1762 13.56043033325504
CARTOSAT-3              
1 44804U 19081A   26166.51076076  .00003775  00000+0  18185-3 0  9999
2 44804  97.4312 228.4044 0013035 154.1193 206.0696 15.19272871363215
JILIN-1 GAOFEN 2B       
1 44836U 19086A   26166.50218207  .00004897  00000+0  22555-3 0  9994
2 44836  97.4886 238.5033 0012998 330.7148  29.3358 15.20695184360233
TIANQIN 1 (CAS-6)       
1 44879U 19093A   26166.48335958  .00002174  00000+0  20167-3 0  9992
2 44879  97.7814 250.3356 0012299  62.2543 297.9923 14.95428522351797
ETRSS-1                 
1 44880U 19093B   26166.49067140  .00001593  00000+0  14762-3 0  9998
2 44880  97.7828 250.8000 0012271  62.5402 297.7065 14.95857108351805
TIANYAN 01              
1 44881U 19093C   26166.49656096  .00001276  00000+0  14992-3 0  9996
2 44881  97.7539 238.7696 0015109  92.1419 268.1527 14.86519010351162
TIANYAN 02              
1 44882U 19093D   26166.52406213  .00005194  00000+0  36760-3 0  9995
2 44882  97.7947 261.2977 0014313  35.5232 324.6944 15.05211900352362
CBERS 4A                
1 44883U 19093E   26166.19861054  .00000713  00000+0  97114-4 0  9990
2 44883  98.0129 233.6361 0001998 354.8536   5.2656 14.81791230350786
WEILAI 1R               
1 44884U 19093F   26166.52095912  .00004959  00000+0  39571-3 0  9998
2 44884  97.7862 256.4036 0017957  41.3352 318.9226 15.00635232352178
FLORIPASAT-1            
1 44885U 19093G   26166.49550463  .00005210  00000+0  38233-3 0  9997
2 44885  97.7916 260.7135 0012849  77.2943 282.9718 15.03858916352395
SHUNTIAN                
1 44886U 19093H   26166.46805095  .00003481  00000+0  32191-3 0  9994
2 44886  97.8022 254.6368 0013341  73.7714 286.4973 14.95156569351925
