OBJECT_NAME,OBJECT_ID,EPOCH,MEAN_MOTION,ECCENTRICITY,INCLINATION,RA_OF_ASC_NODE,ARG_OF_PERICENTER,MEAN_ANOMALY,EPHEMERIS_TYPE,CLASSIFICATION_TYPE,NORAD_CAT_ID,ELEMENT_SET_NO,REV_AT_EPOCH,BSTAR,MEAN_MOTION_DOT,MEAN_MOTION_DDOT
FORMOSAT 7-3,2019-036E,2026-06-15T11:10:17.680224,15.09790634,.0000356,23.9974,190.3915,223.9027,136.1448,0,U,44343,999,38298,.18774E-3,.3458E-4,0
FORMOSAT 7-1,2019-036L,2026-06-14T23:31:05.348928,14.96497002,.00009408,23.9975,47.2732,136.6905,223.3670,0,U,44349,999,38432,.19220588E-3,.254E-4,0
FORMOSAT 7-4,2019-036M,2026-06-15T03:15:28.050048,14.96490785,.00012676,23.9977,108.3283,153.8541,206.2024,0,U,44350,999,38376,.17937709E-3,.239E-4,0
FORMOSAT 7-2,2019-036N,2026-06-14T16:35:31.602336,14.96489879,.00008935,23.9962,165.6418,136.7195,223.3376,0,U,44351,999,38321,.1673145E-3,.2249E-4,0
FORMOSAT 7-6,2019-036Q,2026-06-15T03:47:19.709664,14.96503562,.00014268,23.9995,343.3120,74.7667,285.2991,0,U,44353,999,38151,.18246899E-3,.2427E-4,0
FORMOSAT 7-5,2019-036V,2026-06-15T00:02:33.393696,14.96510526,.000064,23.9977,283.1169,109.4074,250.6496,0,U,44358,999,38202,.18927226E-3,.2506E-4,0
METEOR-M2 2,2019-038A,2026-06-15T13:24:37.226880,14.24365927,.0002121,98.9135,153.8199,50.3711,309.7655,0,U,44387,999,36106,.56154E-4,.84E-6,0
GLOBAL-4,2019-054E,2026-06-14T17:09:39.446496,15.64203962,.00062061,45.0056,250.6641,321.3031,38.7421,0,U,44499,999,37997,.49412079E-3,.4813E-3,0
ZY-1 02D,2019-059A,2026-06-15T12:51:35.654976,14.35459696,.0002431,98.3195,228.0790,108.6442,251.5008,0,U,44528,999,35410,.92779E-4,.225E-5,0
TAURUS-1 (JINNIUZUO 1),2019-059C,2026-06-15T11:24:45.103392,14.72081445,.0007545,98.6406,331.1966,322.3014,37.7662,0,U,44530,999,35839,.86321E-3,.5377E-4,0
ZHUHAI-1 03B,2019-060C,2026-06-15T12:13:14.071296,15.54008783,.0007592,97.5523,324.1836,324.7765,35.2985,0,U,44536,999,37606,.37888E-3,.24465E-3,0
ZHUHAI-1 03D,2019-060E,2026-06-15T11:31:41.502144,15.49666050,.0006693,97.5390,316.2895,307.6683,52.3960,0,U,44538,999,37581,.41685E-3,.23044E-3,0
ZHUHAI-1 03E,2019-060F,2026-06-15T11:46:05.420064,15.41018508,.000607,97.5608,316.3783,39.2699,320.8986,0,U,44539,999,37550,.34187E-3,.14034E-3,0
GAOFEN-7,2019-072A,2026-06-15T11:44:00.381984,15.21590471,.0017503,97.2431,228.0203,46.4656,313.8031,0,U,44703,999,36738,.14998E-3,.3329E-4,0
JILIN-1 GAOFEN 2A,2019-075A,2026-06-15T12:14:18.593952,15.39269392,.0007525,97.4973,250.2603,92.3910,267.8197,0,U,44777,999,36462,.31058E-3,.12028E-3,0
NINGXIA-1 1,2019-076A,2026-06-15T11:18:48.109824,14.02038034,.0010515,45.0037,187.5198,155.1111,205.0232,0,U,44779,999,33761,.30648E-4,-.83E-6,0
NINGXIA-1 5,2019-076E,2026-06-15T11:38:01.630176,14.02086765,.0009996,45.0036,186.8022,144.4852,215.6649,0,U,44783,999,33753,.14339E-3,.91E-6,0
KL-ALPHA A,2019-077A,2026-06-15T11:55:31.067040,13.56043033,.0013191,88.9257,222.7494,110.0813,250.1762,0,U,44785,999,32550,.14153E-3,.112E-5,0
CARTOSAT-3,2019-081A,2026-06-15T12:15:29.729664,15.19272871,.0013035,97.4312,228.4044,154.1193,206.0696,0,U,44804,999,36321,.18185E-3,.3775E-4,0
JILIN-1 GAOFEN 2B,2019-086A,2026-06-15T12:03:08.530848,15.20695184,.0012998,97.4886,238.5033,330.7148,29.3358,0,U,44836,999,36023,.22555E-3,.4897E-4,0
TIANQIN 1 (CAS-6),2019-093A,2026-06-15T11:36:02.267712,14.95428522,.0012299,97.7814,250.3356,62.2543,297.9923,0,U,44879,999,35179,.20167E-3,.2174E-4,0
ETRSS-1,2019-093B,2026-06-15T11:46:34.008960,14.95857108,.0012271,97.7828,250.8000,62.5402,297.7065,0,U,44880,999,35180,.14762E-3,.1593E-4,0
TIANYAN 01,2019-093C,2026-06-15T11:55:02.866944,14.86519010,.0015109,97.7539,238.7696,92.1419,268.1527,0,U,44881,999,35116,.14992E-3,.1276E-4,0
TIANYAN 02,2019-093D,2026-06-15T12:34:38.968032,15.05211900,.0014313,97.7947,261.2977,35.5232,324.6944,0,U,44882,999,35236,.3676E-3,.5194E-4,0
CBERS 4A,2019-093E,2026-06-15T04:45:59.950656,14.81791230,.00019989,98.0129,233.6361,354.8536,5.2656,0,U,44883,999,35078,.97114071E-4,.713E-5,0
WEILAI 1R,2019-093F,2026-06-15T12:30:10.867968,15.00635232,.0017957,97.7862,256.4036,41.3352,318.9226,0,U,44884,999,35217,.39571E-3,.4959E-4,0
FLORIPASAT-1,2019-093G,2026-06-15T11:53:31.600032,15.03858916,.0012849,97.7916,260.7135,77.2943,282.9718,0,U,44885,999,35239,.38233E-3,.521E-4,0
SHUNTIAN,2019-093H,2026-06-15T11:13:59.602080,14.95156569,.0013341,97.8022,254.6368,73.7714,286.4973,0,U,44886,999,35192,.32191E-3,.3481E-4,0
